GLOBALSTAR M084         
1 38040U 11080A   25321.71270630 -.00000080  00000+0  13526-3 0  9992
2 38040  52.0022 301.0873 0000671  36.6301 134.9673 12.62265406642057
GLOBALSTAR M080         
1 38041U 11080B   25321.68410652 -.00000082  00000+0  11941-3 0  9990
2 38041  52.0075 302.8195 0000611 108.1983  63.0858 12.62271104642179
GLOBALSTAR M082         
1 38042U 11080C   25321.82414153 -.00000099  00000+0  25173-4 0  9998
2 38042  52.0076 257.8709 0000652  89.6879 288.2056 12.62264974642902
GLOBALSTAR M092         
1 38043U 11080D   25321.83157016 -.00000087  00000+0  95712-4 0  9995
2 38043  52.0107 348.2342 0000351  92.4433  78.6143 12.62267777641350
GLOBALSTAR M090         
1 38044U 11080E   25321.85450521 -.00000100  00000+0  19556-4 0  9993
2 38044  52.0124 251.6667 0000556  63.6573 331.2933 12.62264171643025
GLOBALSTAR M086         
1 38045U 11080F   25321.79777862 -.00000097  00000+0  35115-4 0  9991
2 38045  51.9898 252.1132 0000853 339.2011  45.9689 12.62279602642968
GLOBALSTAR M097         
1 39072U 13005A   25321.82009345 -.00000061  00000+0  23780-3 0  9994
2 39072  52.0020 166.7568 0000825  88.4513 271.6449 12.62267470590212
GLOBALSTAR M093         
1 39073U 13005B   25321.55651064 -.00000067  00000+0  20749-3 0  9994
2 39073  52.0076 160.8260 0000700 101.3802 258.7143 12.62270613590137
